QIANFAN-17              
1 60395U 24140S   26014.54441391  .00000117  00000+0  16275-3 0  9990
2 60395  88.9790 296.0480 0016470 107.2318 253.0637 13.50985237 72564
QIANFAN-18              
1 60396U 24140T   26014.59788689  .00000094  00000+0  12664-3 0  9992
2 60396  88.9783 295.5737 0016042  91.3493 268.9496 13.50985256 71960
QIANFAN-19              
1 61552U 24185A   26014.55447716  .00000305  00000+0  15231-3 0  9993
2 61552  88.9793  74.1841 0006885 180.8532 179.2645 14.14332364 74303
QIANFAN-20              
1 61553U 24185B   26014.57185324  .00000244  00000+0  13338-3 0  9998
2 61553  88.9793  74.5392 0004530 223.0552 137.0277 14.08879905 74118
QIANFAN-21              
1 61554U 24185C   26014.59794751  .00000425  00000+0  18352-3 0  9993
2 61554  88.9707  73.1335 0008537 250.6343 109.3926 14.22656245 74648
QIANFAN-22              
1 61555U 24185D   26014.55872557  .00000113  00000+0  85979-4 0  9995
2 61555  88.9776  75.6537 0004587 245.4821 114.5872 13.86316317 73481
QIANFAN-23              
1 61556U 24185E   26014.62497094  .00000384  00000+0  18663-3 0  9998
2 61556  88.9785  73.9701 0007117 193.6919 166.4077 14.16327642 74403
QIANFAN-24              
1 61557U 24185F   26014.57294420  .00000447  00000+0  18874-3 0  9995
2 61557  88.9767  73.3272 0009570 177.4708 182.6534 14.23858528 74691
